[{"OBJECT_NAME":"HAWK-11C","OBJECT_ID":"2024-247E","EPOCH":"2026-03-09T12:17:35.407968","MEAN_MOTION":15.2884802,"ECCENTRICITY":0.00059001,"INCLINATION":45.0045,"RA_OF_ASC_NODE":114.8762,"ARG_OF_PERICENTER":329.704,"MEAN_ANOMALY":30.3502,"EPHEMERIS_TYPE":0,"CLASSIFICATION_TYPE":"U","NORAD_CAT_ID":62381,"ELEMENT_SET_NO":999,"REV_AT_EPOCH":6774,"BSTAR":0.00033290115,"MEAN_MOTION_DOT":9.223e-5,"MEAN_MOTION_DDOT":0},{"OBJECT_NAME":"STARLINK-32774","OBJECT_ID":"2025-014C","EPOCH":"2026-03-09T07:41:39.741504","MEAN_MOTION":15.27599235,"ECCENTRICITY":0.00028234,"INCLINATION":43.0002,"RA_OF_ASC_NODE":159.7013,"ARG_OF_PERICENTER":289.4482,"MEAN_ANOMALY":70.6064,"EPHEMERIS_TYPE":0,"CLASSIFICATION_TYPE":"U","NORAD_CAT_ID":62737,"ELEMENT_SET_NO":999,"REV_AT_EPOCH":6316,"BSTAR":0.0013263468,"MEAN_MOTION_DOT":0.0003644,"MEAN_MOTION_DDOT":0}]
